#cP2021 10  4  0  0  0.00000000      96 ORBIT IGb14 HLM  IGS
## 2178  86400.00000000   900.00000000 59491 0.0000000000000
+   32   G01G02G03G04G05G06G07G08G09G10G11G12G13G14G15G16G17
+        G18G19G20G21G22G23G24G25G26G27G28G29G30G31G32  0  0
+          0  0  0  0  0  0  0  0  0  0  0  0  0  0  0  0  0
+          0  0  0  0  0  0  0  0  0  0  0  0  0  0  0  0  0
+          0  0  0  0  0  0  0  0  0  0  0  0  0  0  0  0  0
++         2  2  2  2  1  2  2  2  2  2  3  1  2  2  2  2  2
++         2  2  2  2  1  1  2  2  1  2  2  2  2  2  2  0  0
++         0  0  0  0  0  0  0  0  0  0  0  0  0  0  0  0  0
++         0  0  0  0  0  0  0  0  0  0  0  0  0  0  0  0  0
++         0  0  0  0  0  0  0  0  0  0  0  0  0  0  0  0  0
%c G  cc GPS ccc cccc cccc cccc cccc ccccc ccccc ccccc ccccc
%c cc cc ccc ccc cccc cccc cccc cccc ccccc ccccc ccccc ccccc
%f  1.2500000  1.025000000  0.00000000000  0.000000000000000
%f  0.0000000  0.000000000  0.00000000000  0.000000000000000
%i    0    0    0    0      0      0      0      0         0
%i    0    0    0    0      0      0      0      0         0
/* FINAL ORBIT COMBINATION FROM WEIGHTED AVERAGE OF:        
/* cod emr esa gfz grg jpl mit ngs sio                      
/* REFERENCED TO IGS TIME (IGST) AND TO WEIGHTED MEAN POLE: 
/* PCV:IGS14_2178 OL/AL:FES2004  NONE     Y  ORB:CMB CLK:CMB
*  2021 10  4  9  0  0.00000000
PG01  15503.848754   1521.276994  21293.695536    549.124309  3  2  4  54       
PG02 -14307.717163 -21295.929600  -6049.927689   -635.722487  7  5  5  70       
PG03  20173.193700  -7973.902829  15152.644484   -312.363298     3  3  75       
PG04  25415.261891   -271.983038  -7828.934501   -203.993383  5  6  4  72       
PG05 -14924.033439  -5409.729044 -21479.443949    -56.527482  4  4  2  99       
PG06  -5293.520083 -25399.771658   5599.279134     87.359158  4  4  7  93       
PG07   9324.415037 -14909.927246 -19385.522643    256.654254  4  4  5  86       
PG08  25701.948958   6448.893958  -3536.476899    -38.847482  3  5  5 100       
PG09  18415.949263  -9229.745605 -16851.746209   -361.614093  6  5  1  81       
PG10  -9423.771309  22459.096805  10358.825197   -216.669568  6  3  3  68       
PG11 -11741.433066 -22909.381258  -6581.615684     20.640210 10  6 10  28       
PG12 -20408.009081   5755.135684  15660.787229   -106.606253  1  3     66       
PG13 -21155.343069 -13353.045239  -9291.962447    194.647851  6  6  1  87       
PG14  10330.271016 -22171.567058  10283.152793    -12.003036  3  5  4  65       
PG15 -26259.347587  -3992.211429  -3519.201184   -116.457229     6  2  84       
PG16  11168.761430  10175.183572 -22099.103756   -401.357145  4  5  2  86       
PG17   5245.523481 -14100.756132  22324.861146    514.175041  6  4     89       
PG18  -8078.024597  16650.326406 -19025.292807    314.659264  6  7  5  82       
PG19  -4986.809949 -15765.176851  20555.776266     61.369668  6  4  4  99       
PG20  -7228.073765 -16146.454594 -19910.508305    518.813391  3  5  4  82       
PG21  18140.920477   9386.671958  17953.205764    145.953817  7  6  2  68       
PG22  17911.276566   -636.413100  19712.999801   -497.595139  5  4  2  74       
PG23 -16932.868136  20388.623973   -933.540809     49.383717  5  5  3  82       
PG24 -17777.339235  -5656.374195  18784.388344    247.591925  6  6  4  82       
PG25 -19916.468203  15309.635369   7930.997771    218.847424  5  3  3  92       
PG26   1196.402220  19763.360392 -17626.807122    141.215711  3  6  2  63       
PG27  20101.277750  12294.937085 -12796.453162   -201.671775  5  4  4  97       
PG28   4971.748599 -20782.990029  16447.636966    489.019827  4  3  3  60       
PG29 -21248.721972   5092.260859 -15187.759593   -421.225557  3  3  4  88       
PG30   1486.892220 -23384.184081 -12208.555336   -479.139421  4  4  6  88       
PG31   6272.870158  25340.462530   3123.111354   -143.152581  2  3  6  92       
PG32   -451.275091  15425.102815  21741.573621     -6.637360  6  4  5  65       
*  2021 10  4  9 15  0.00000000
PG01  16346.229406   3800.490413  20400.379569    549.114559  3  2  4  62       
PG02 -14349.732678 -21953.036580  -3248.689989   -635.724187  7  5  5  66       
PG03  19153.705511  -6404.842656  17092.090054   -312.375807  2  3  2  58       
PG04  26102.046242     90.152022  -5105.702645   -203.993191  5  6  4  69       
PG05 -13516.196014  -7403.903662 -21802.715449    -56.528594  3  4  2  79       
PG06  -4832.879419 -24732.944542   8357.494230     87.366195  4  5  7  80       
PG07  10316.978436 -12757.719307 -20417.150487    256.660319  4  4  4  82       
PG08  25123.885729   6590.265216  -6311.487629    -38.849290  4  4  5 100       
PG09  20187.407733  -8828.559711 -14921.229601   -361.614422  6  5  2  69       
PG10 -10231.476292  23131.579363   7726.564752   -216.676825  6  3  3  83       
PG11 -11697.794403 -23550.318471  -3809.463530     20.640994 10  5  9           
PG12 -19223.058967   4205.409298  17524.766069   -106.611190  2  3     81       
PG13 -19965.921139 -13219.055181 -11801.388714    194.652899  6  6  1  70       
PG14  11189.861576 -22793.758947   7693.262447    -12.009978  2  5  4  53       
PG15 -25742.455662  -4286.645945  -6219.200683   -116.454888  1  6  2  80       
PG16   9462.858335  11955.735075 -21962.039205   -401.362886  4  5  2  77       
PG17   7625.524846 -13594.076124  21943.279450    514.180271  6  4  2  95       
PG18  -8975.870610  14587.204287 -20284.154731    314.654947  6  7  4  60       
PG19  -2600.398521 -15222.442901  21364.229709     61.374563  6  4  4  98       
PG20  -6038.936969 -18005.400881 -18696.718043    518.812977  3  4  3 102       
PG21  18842.026125  11065.970879  16159.709144    145.955648  8  6  2  69       
PG22  16795.670003   1365.438525  20662.204971   -497.586796  5  4  3  75       
PG23 -16972.498948  20026.368473  -3785.965247     49.379359  5  5  3  70       
PG24 -18568.208818  -7618.545000  17325.556485    247.598222  6  7  4  86       
PG25 -19450.062549  14282.865498  10523.475023    218.852977  4  3  3  56       
PG26    -83.754425  21212.514820 -15864.700694    141.219345  3  6  2  65       
PG27  18548.402203  12218.458733 -15018.569140   -201.676385  5  4  3  97       
PG28   6216.363576 -21901.853371  14390.776247    489.013615  4  3  3  58       
PG29 -22780.028240   4615.129694 -12955.627792   -421.230864  3  3  4  92       
PG30   2287.276553 -22033.109935 -14410.065591   -479.142759  5  3  6  70       
PG31   5802.294509  24944.081143   5932.732217   -143.154291  3  4  6  80       
PG32  -2894.877951  15096.446990  21768.636574     -6.640819  5  4  5  70       
*  2021 10  4  9 30  0.00000000
PG01  17261.416765   5914.029080  19150.265681    549.104761  3  2  3  51       
PG02 -14269.932054 -22323.067315   -390.626963   -635.725989  7  4  5  63       
PG03  18103.495922  -4615.673661  18733.993077   -312.388323  3  3  3  36       
PG04  26496.033207    380.099618  -2294.953318   -203.992925  6  5  4  51       
PG05 -12204.996078  -9483.057155 -21756.662148    -56.529905  2  3  2  86       
PG06  -4205.652001 -23817.344711  10971.714804     87.373254  4  5  7  88       
PG07  11453.789222 -10571.173511 -21082.516828    256.665804  4  4  4  64       
PG08  24248.535495   6744.086168  -8979.910639    -38.851045  4  4  4 106       
PG09  21745.637177  -8532.932728 -12735.379248   -361.614674  6  5  2  71       
PG10 -10830.131031  23592.274660   4959.630419   -216.684061  6  2  2  53       
PG11 -11568.137286 -23898.574671   -971.818340     20.641816 10  5  9  36       
PG12 -17999.442829   2441.282644  19079.917590   -106.616352  2  3     87       
PG13 -18506.374993 -13091.697526 -14110.782206    194.657677  5  5  1  75       
PG14  11835.318812 -23218.894786   4970.543551    -12.016945  2  4  4  69       
PG15 -24946.686896  -4614.131370  -8815.348284   -116.452473  2  6  2  66       
PG16   7876.238486  13802.150235 -21454.473696   -401.368586  4  4  3  77       
PG17   9969.225122 -13231.282801  21198.853040    514.185373  6  4  2  79       
PG18 -10032.650593  12463.638667 -21193.507131    314.650657  6  7  4  62       
PG19   -115.754043 -14797.125460  21796.710538     61.378621  6  3  4  96       
PG20  -5011.610960 -19780.401552 -17164.426876    518.812696  3  4  4  96       
PG21  19527.305874  12523.747320  14106.604699    145.957205  8  5  2  75       
PG22  15737.652759   3492.788951  21259.940861   -497.578495  5  3  3  63       
PG23 -16856.491270  19398.671960  -6572.954145     49.375076  5  4  3  69       
PG24 -19361.938560  -9377.439100  15567.001351    247.604492  7  7  3  72       
PG25 -18875.198771  12996.381048  12929.956765    218.858571  3  4  3  94       
PG26  -1180.263421  22540.678476 -13827.388622    141.223048  3  6  2  83       
PG27  16759.028065  12209.547050 -16989.419657   -201.680923  5  4  2 103       
PG28   7245.668570 -22902.453944  12096.415579    489.007010  3  2  4  66       
PG29 -24073.407113   4264.418796 -10501.769724   -421.235775  3  3  4  89       
PG30   3246.586639 -20507.036060 -16359.807251   -479.146076  5  3  5  76       
PG31   5184.086557  24283.271277   8637.048876   -143.156008  3  4  6  88       
PG32  -5336.295993  14896.302473  21424.848676     -6.644293  5  4  4  52       
EOF
